     2.100          NAVIGATION                              RINEX VERSION / TYPE
fic2rin                                 09/18/2013 00:21:36 PGM / RUN BY / DATE
                                                            END OF HEADER
14 13  9 17 20  0  0.0  .215539243072D-03 -.909494701773D-12  .000000000000D+00
     .101000000000D+03 -.579062500000D+02  .452411701906D-08 -.178920165593D+01
    -.301748514175D-05  .741535995621D-02  .625476241112D-05  .515354842186D+04
     .244800000000D+06  .178813934326D-06 -.130418967120D+01  .149011611938D-07
     .972558063953D+00  .266562500000D+03 -.200576829893D+01 -.807533637017D-08
    -.543236913712D-09  .100000000000D+01  .175800000000D+04  .000000000000D+00
     .340000000000D+01  .000000000000D+00 -.884756445885D-08  .101000000000D+03
     .237606000000D+06  .400000000000D+01
15 13  9 17 20  0  0.0 -.137578696012D-03 -.181898940355D-11  .000000000000D+00
     .780000000000D+02 -.573437500000D+02  .535950895935D-08 -.226468635303D+01
    -.297278165817D-05  .554699893110D-02  .491552054882D-05  .515355644035D+04
     .244800000000D+06 -.447034835815D-07 -.140789617376D+01 -.912696123123D-07
     .939132564127D+00  .274937500000D+03  .155464468131D+00 -.862893085818D-08
    -.383230248792D-09  .100000000000D+01  .175800000000D+04  .000000000000D+00
     .240000000000D+01  .000000000000D+00 -.977888703346D-08  .780000000000D+02
     .237606000000D+06  .400000000000D+01
16 13  9 17 20  0  0.0 -.246502459049D-03  .795807864051D-12  .000000000000D+00
     .940000000000D+02  .848125000000D+02  .422624746874D-08 -.560108685564D+00
     .450760126114D-05  .706503447145D-02  .510737299919D-05  .515370990944D+04
     .244800000000D+06  .139698386192D-06  .769850703075D+00 -.596046447754D-07
     .985855469957D+00  .290281250000D+03  .138516445149D+00 -.824570060939D-08
     .545379860117D-09  .100000000000D+01  .175800000000D+04  .000000000000D+00
     .240000000000D+01  .000000000000D+00 -.977888703346D-08  .940000000000D+02
     .237606000000D+06  .400000000000D+01
17 13  9 17 20  0  0.0 -.223009847105D-04 -.375166564481D-11  .000000000000D+00
     .320000000000D+02 -.859687500000D+02  .482662961993D-08 -.151621639078D+01
    -.432692468166D-05  .852122483775D-02  .408664345741D-05  .515367916489D+04
     .244800000000D+06  .240281224251D-06  .180560755366D+01  .223517417908D-07
     .966061907465D+00  .301218750000D+03 -.219235399829D+01 -.835749098019D-08
    -.320013329840D-09  .100000000000D+01  .175800000000D+04  .000000000000D+00
     .240000000000D+01  .000000000000D+00 -.102445483208D-07  .320000000000D+02
     .237606000000D+06  .400000000000D+01
20 13  9 17 20  0  0.0  .123117584735D-03  .261479726760D-11  .000000000000D+00
     .220000000000D+02  .795312500000D+02  .561487673930D-08  .477712706697D+00
     .415742397308D-05  .553753424902D-02  .723823904991D-05  .515367673683D+04
     .244800000000D+06 -.242143869400D-07 -.248032575027D+01  .149011611938D-07
     .927788847181D+00  .221031250000D+03  .128797208029D+01 -.881072414488D-08
     .478591363823D-09  .100000000000D+01  .175800000000D+04  .000000000000D+00
     .240000000000D+01  .000000000000D+00 -.791624188423D-08  .220000000000D+02
     .237606000000D+06  .400000000000D+01
21 13  9 17 20  0  0.0 -.319173559546D-03 -.193267624127D-11  .000000000000D+00
     .910000000000D+02 -.305625000000D+02  .515235747351D-08  .101573973080D+01
    -.142678618431D-05  .205600325717D-01  .132545828819D-04  .515363910294D+04
     .244800000000D+06 -.303611159325D-06  .280977451551D+01  .113621354103D-06
     .932243220609D+00  .117718750000D+03 -.210548815662D+01 -.859107213835D-08
    -.189650756858D-09  .100000000000D+01  .175800000000D+04  .000000000000D+00
     .240000000000D+01  .000000000000D+00 -.111758708954D-07  .910000000000D+02
     .237606000000D+06  .400000000000D+01
22 13  9 17 20  0  0.0  .185294076800D-03  .170530256582D-11  .000000000000D+00
     .173000000000D+03  .748750000000D+02  .577488340422D-08 -.585759362429D+00
     .386685132980D-05  .678627914749D-02  .595673918724D-05  .515364519119D+04
     .244800000000D+06 -.260770320892D-07 -.242462406476D+01  .838190317154D-07
     .924660888409D+00  .244843750000D+03 -.203540761462D+01 -.892680040850D-08
     .392516349881D-09  .100000000000D+01  .175800000000D+04  .000000000000D+00
     .485000000000D+01  .000000000000D+00 -.172294676304D-07  .173000000000D+03
     .237606000000D+06  .400000000000D+01
23 13  9 17 20  0  0.0  .472916290164D-04 -.352429196937D-11  .000000000000D+00
     .800000000000D+01 -.654375000000D+02  .504521015325D-08 -.278645960826D+01
    -.346265733242D-05  .888159777969D-02  .535883009434D-05  .515365187263D+04
     .244800000000D+06 -.651925802231D-07 -.136500138076D+01 -.931322574615D-07
     .954121862685D+00  .272375000000D+03 -.282307881186D+01 -.838106339065D-08
    -.518593030053D-09  .100000000000D+01  .175800000000D+04  .000000000000D+00
     .240000000000D+01  .000000000000D+00 -.200234353542D-07  .800000000000D+01
     .237606000000D+06  .400000000000D+01
24 13  9 17 20  0  0.0 -.139349140227D-04 -.682121026330D-12  .000000000000D+00
     .360000000000D+02  .653125000000D+01  .414374403214D-08  .287176297296D+01
     .417232513428D-06  .104327476583D-02  .125542283058D-04  .515366593170D+04
     .244800000000D+06 -.130385160446D-07 -.338357503320D+00  .111758708954D-07
     .958688936397D+00  .136312500000D+03  .188255649603D+00 -.788282835144D-08
    -.104290058385D-09  .100000000000D+01  .175800000000D+04  .000000000000D+00
     .240000000000D+01  .000000000000D+00  .325962901115D-08  .360000000000D+02
     .237606000000D+06  .400000000000D+01
25 13  9 17 20  0  0.0  .148331746459D-03  .409272615798D-11  .000000000000D+00
     .540000000000D+02  .918750000000D+02  .444054210926D-08  .636477396593D+00
     .459700822830D-05  .274443090893D-02  .565499067307D-05  .515372113419D+04
     .244800000000D+06  .186264514923D-08  .711873823008D+00  .689178705215D-07
     .974034733462D+00  .279156250000D+03  .740726916786D+00 -.823891461244D-08
     .476448417418D-09  .100000000000D+01  .175800000000D+04  .000000000000D+00
     .240000000000D+01  .000000000000D+00  .558793544769D-08  .540000000000D+02
     .237606000000D+06  .400000000000D+01
26 13  9 17 20  0  0.0  .194913242012D-03  .184172677109D-10  .000000000000D+00
     .550000000000D+02 -.747812500000D+02  .430232206613D-08 -.277689922063D+01
    -.378116965294D-05  .210624816827D-01  .586546957493D-05  .515368253136D+04
     .244800000000D+06  .247731804848D-06 -.128193434967D+01 -.931322574615D-07
     .977364706592D+00  .272250000000D+03  .125020050394D+01 -.777103798064D-08
    -.441446959466D-09  .100000000000D+01  .175800000000D+04  .000000000000D+00
     .240000000000D+01  .000000000000D+00 -.558793544769D-08  .550000000000D+02
     .237606000000D+06  .400000000000D+01
27 13  9 17 20  0  0.0 -.377059914172D-04 -.454747350886D-11  .000000000000D+00
     .170000000000D+02 -.836250000000D+02  .496663545173D-08 -.236694261954D+01
    -.445358455181D-05  .423847697675D-03  .439770519733D-05  .515366248131D+04
     .244800000000D+06  .279396772385D-07  .176165545271D+01  .353902578354D-07
     .960652150515D+00  .293968750000D+03  .956220762456D+00 -.854214152877D-08
    -.348228790841D-09  .100000000000D+01  .175800000000D+04  .000000000000D+00
     .240000000000D+01  .000000000000D+00  .186264514923D-08  .170000000000D+02
     .237606000000D+06  .400000000000D+01
28 13  9 17 20  0  0.0  .293378718197D-03  .318323145621D-11  .000000000000D+00
     .640000000000D+02  .853750000000D+02  .437911097898D-08 -.727235020212D+00
     .472553074360D-05  .187511901604D-01  .594742596149D-05  .515364720726D+04
     .244800000000D+06 -.251457095146D-06  .775956506206D+00  .199303030968D-06
     .984317496866D+00  .283437500000D+03 -.176248039367D+01 -.846213819631D-08
     .582524264474D-09  .100000000000D+01  .175800000000D+04  .000000000000D+00
     .240000000000D+01  .000000000000D+00 -.107102096081D-07  .640000000000D+02
     .237606000000D+06  .400000000000D+01
29 13  9 17 20  0  0.0  .471471343189D-03  .306954461848D-11  .000000000000D+00
     .480000000000D+02 -.810312500000D+02  .479519973932D-08  .132088580017D+01
    -.416673719883D-05  .146360730287D-02  .481307506561D-05  .515357827950D+04
     .244800000000D+06  .111758708954D-07  .181447535929D+01 -.316649675369D-07
     .966733334198D+00  .293343750000D+03 -.991835122737D+00 -.835570519152D-08
    -.314655963827D-09  .100000000000D+01  .175800000000D+04  .000000000000D+00
     .240000000000D+01  .000000000000D+00 -.931322574615D-08  .480000000000D+02
     .237606000000D+06  .400000000000D+01
31 13  9 17 20  0  0.0  .326085835695D-03  .909494701773D-12  .000000000000D+00
     .510000000000D+02  .175625000000D+02  .359657838335D-08  .198131935953D+01
     .105053186417D-05  .793229544070D-02  .137444585562D-04  .515367771721D+04
     .244800000000D+06  .465661287308D-07 -.302940587240D+00  .968575477600D-07
     .980215615012D+00  .121906250000D+03 -.733420071078D+00 -.747423990352D-08
    -.162149611325D-09  .100000000000D+01  .175800000000D+04  .000000000000D+00
     .240000000000D+01  .000000000000D+00 -.130385160446D-07  .510000000000D+02
     .237606000000D+06  .400000000000D+01
32 13  9 17 20  0  0.0 -.547993462533D-03  .284217094304D-11  .000000000000D+00
     .101000000000D+03  .761250000000D+02  .514950021164D-08  .244426111843D+01
     .394135713577D-05  .116017237306D-01  .605918467045D-05  .515359231758D+04
     .244800000000D+06 -.521540641785D-07 -.233826299713D+01  .229105353355D-06
     .948761401686D+00  .255343750000D+03 -.295278676685D+00 -.842785105383D-08
     .368229623956D-09  .100000000000D+01  .175800000000D+04  .000000000000D+00
     .340000000000D+01  .000000000000D+00 -.279396772385D-08  .101000000000D+03
     .237606000000D+06  .400000000000D+01
